{"fetched_at":"2026-04-24T13:20:28Z","count":1910,"tles":[{"name":"JILIN-1 GAOFEN 3B","line1":"1 46454U 20065A   26114.18370565  .01621989  23167-5  92952-3 0  9995","line2":"2 46454  97.2068 174.8508 0008091 240.4877 119.5605 16.18967952311961","category":"Other"},{"name":"KAZSTSAT","line1":"1 43783U 18099AB  26114.05665961  .00000764  00000+0  66329-4 0  9990","line2":"2 43783  97.4375 148.4307 0003761 201.7022 158.4043 14.99769661403190","category":"Other"},{"name":"JILIN-1 GAOFEN 3D32","line1":"1 52449U 22048G   23362.44815314  .00012358  00000+0  56673-3 0  9994","line2":"2 52449  97.6185  74.9126 0011601  14.3554 345.8008 15.20532310 91158","category":"Other"},{"name":"TEIKYOSAT-4 (OORURI)","line1":"1 49396U 21102B   26114.02547562  .00001598  00000+0  10386-3 0  9995","line2":"2 49396  97.3723 145.6089 0013649 116.6415 243.6214 15.09307441244550","category":"Other"},{"name":"JILIN-1 GAOFEN 3C","line1":"1 46455U 20065B   26041.82876938  .11216960  25293-5  43027-3 0  9992","line2":"2 46455  97.2240 102.4050 0008886 228.0638 131.9907 16.43321050300841","category":"Other"},{"name":"COLIBRI-S (RS67S)","line1":"1 61746U 24199M   26114.16523330  .00017021  00000+0  35629-3 0  9994","line2":"2 61746  97.3076 347.5965 0010775 113.4542 246.7841 15.45454298129064","category":"Other"},{"name":"XW-3 (CAS-9)","line1":"1 50466U 21131B   26114.18429571  .00000423  00000+0  14458-3 0  9993","line2":"2 50466  98.4945 206.8751 0002894 255.5144 104.5724 14.41303647227333","category":"Other"},{"name":"LUR-1","line1":"1 60506U 24149AQ  26114.14723608  .00005723  00000+0  20348-3 0  9998","line2":"2 60506  97.3744 193.3950 0005519 127.0576 233.1170 15.29374704 93710","category":"Other"},{"name":"KL-ALPHA A","line1":"1 44785U 19077A   26114.18100674  .00000081  00000+0  97849-4 0  9992","line2":"2 44785  88.9243 228.4666 0009011 265.3029  94.7096 13.56037042318419","category":"Other"},{"name":"ORBCOMM FM114","line1":"1 41179U 15081A   26113.66720873  .00000305  00000+0  10090-3 0  9999","line2":"2 41179  47.0044 259.7553 0002595 295.9745  64.0873 14.58794983549791","category":"Other"},{"name":"ARCSTONE","line1":"1 64540U 25135N   26113.56573954  .00015999  00000+0  54059-3 0  9990","line2":"2 64540  97.4547 230.7183 0003035  46.9080 313.2414 15.30732686 46671","category":"Other"},{"name":"DONGPO 04","line1":"1 53451U 22098H   26114.19249980  .01471661  25194-5  87752-3 0  9999","line2":"2 53451  97.5561 251.1748 0010093 258.8555 101.1598 16.18383592206821","category":"Other"},{"name":"KINEIS-3B","line1":"1 61224U 24172E   26114.18978270  .00001492  00000+0  24400-3 0  9995","line2":"2 61224  98.0394 204.7902 0001225 192.7489 167.3687 14.72294741 85400","category":"Other"},{"name":"ELEKTRO-L 5","line1":"1 67756U 26028A   26113.20186719 -.00000110  00000+0  00000+0 0  9997","line2":"2 67756   0.3671 296.7667 0000966 185.9666 237.2697  1.00271647   717","category":"Other"},{"name":"IRIS-F3","line1":"1 62619U 25009L   26114.17907889  .00004621  00000+0  18035-3 0  9995","line2":"2 62619  97.4046 195.4677 0007673 143.8508 216.3251 15.26383680 70589","category":"Other"},{"name":"SHERPA-LTC2","line1":"1 53754U 22107BG  26114.10934985  .00004762  00000+0  24720-3 0  9995","line2":"2 53754  53.2321  89.1500 0398741  75.0532 289.4224 14.68947078194592","category":"Other"},{"name":"2024-110B","line1":"1 60013U 24110B   26114.19285956  .00005647  00000+0  25214-3 0  9995","line2":"2 60013  97.5689 209.7854 0012455  81.5729 278.6917 15.21702539103975","category":"Other"},{"name":"RADIO ROSTO (RS15)","line1":"1 23439U 94085A   26114.10433122 -.00000053  00000+0 -29738-3 0  9998","line2":"2 23439  64.8199  30.6821 0154387  13.7103 346.7945 11.27583713289806","category":"Other"},{"name":"GONETS-M 25","line1":"1 54152U 22139C   26114.20883278  .00000016  00000+0  45226-4 0  9995","line2":"2 54152  82.5095  21.5898 0020832 351.4139   8.6581 12.42888435158942","category":"Other"},{"name":"UM5-RIBAT","line1":"1 60554U 24149CQ  26114.20477917  .00002245  00000+0  18166-3 0  9998","line2":"2 60554  97.6674 192.7319 0001666 141.4976 218.6367 15.00764897 92094","category":"Other"},{"name":"BIFROST-DNK","line1":"1 64588U 25135BN  26114.17603448  .00001979  00000+0  18926-3 0  9998","line2":"2 64588  97.7669 229.3985 0004935 154.0634 206.0834 14.94367827 45844","category":"Other"},{"name":"ICEYE-X47","line1":"1 62389U 24247N   26112.88309681  .00002144  00000+0  13438-3 0  9994","line2":"2 62389  44.9968 292.2611 0001941 266.8476  93.2179 15.12811289 73804","category":"Other"},{"name":"BEIDOU-2 M1","line1":"1 31115U 07011A   26102.97458616 -.00000007  00000+0  00000+0 0  9993","line2":"2 31115  50.9534 221.4454 0001634  18.2416 341.7418  1.77349306 74994","category":"GPS"},{"name":"JILIN-1 GAOFEN 3D03","line1":"1 49006U 21061D   26112.64125456  .13621421  25160-5  21646-3 0  9995","line2":"2 49006  97.2690 193.2809 0012604 261.1360  98.8517 16.47563863267550","category":"Other"},{"name":"2025-180D","line1":"1 65262U 25180D   26099.77755221  .00005755  00000+0  31243-3 0  9996","line2":"2 65262  97.5146 227.6981 0014129 192.0811 168.0084 15.14842114 35308","category":"Other"},{"name":"SITRO-AIS 37","line1":"1 61780U 24199AX  26114.15342169  .00034168  00000+0  52439-3 0  9999","line2":"2 61780  97.3018 349.0813 0010289 122.1866 238.0387 15.54161320126037","category":"Other"},{"name":"FOSSASAT-2E20 (TAT-O)","line1":"1 63003U 25009DN  26114.16543447  .00011122  00000+0  40568-3 0  9998","line2":"2 63003  97.3176 190.9267 0004156 145.4313 214.7198 15.28311235128259","category":"Other"},{"name":"RESOURCESAT-2","line1":"1 37387U 11015A   26114.17588547  .00000088  00000+0  60398-4 0  9990","line2":"2 37387  98.7670 181.9831 0012193  57.5678 302.6677 14.21598658778509","category":"Other"},{"name":"OPS 6582 (TRANSIT 5B-5)","line1":"1 00965U 64083D   26105.18888970  .00000055  00000+0  62834-4 0  9990","line2":"2 00965  90.0795 202.5243 0043623 101.8637 279.2480 13.57006647 35070","category":"Other"},{"name":"IMAGE","line1":"1 26113U 00017A   26110.17034192  .00000059  00000+0 -48903-2 0  9998","line2":"2 26113  94.1831 314.6019 7475869 294.4117   7.7410  1.68665638160521","category":"Other"},{"name":"ICEYE-X52","line1":"1 64572U 25135AW  26114.20173110  .00001734  00000+0  17076-3 0  9997","line2":"2 64572  97.7674 229.0729 0003066 128.0222 232.1274 14.93354104 45823","category":"Other"},{"name":"HUNITY","line1":"1 66670U 25276E   26114.14566632  .00020655  00000+0  84673-3 0  9992","line2":"2 66670  97.4092 188.8295 0007544 190.7356 169.3722 15.24266533 22247","category":"Other"},{"name":"NUSAT-25 (MARIA TELKES)","line1":"1 52171U 22033Q   23362.46160210  .00014621  00000+0  56233-3 0  9997","line2":"2 52171  97.3065  78.6893 0002554 144.7143 215.4265 15.26497612 97036","category":"Other"},{"name":"AUTCUBE 2","line1":"1 43681U 18084K   26114.08694919  .00002510  00000+0  16011-3 0  9992","line2":"2 43681  98.0768 317.3939 0008105 218.7959 141.2687 15.09704866408762","category":"Other"},{"name":"CONNECTA IOT-7","line1":"1 62715U 25009DL  26114.19211951  .00000530  00000+0  54911-4 0  9991","line2":"2 62715  97.7086 193.9482 0002199  56.8499 303.2932 14.94071693 69289","category":"Other"},{"name":"YUNHAI-1 03","line1":"1 53877U 22115A   26114.20240513  .00000258  00000+0  11077-3 0  9995","line2":"2 53877  98.5541 113.0372 0004301 191.5388 168.5698 14.32679586187789","category":"Other"},{"name":"2025-292A","line1":"1 66993U 25292A   26114.16389569  .00003979  00000+0  27759-3 0  9994","line2":"2 66993  97.6319 190.3994 0015367 178.2272 181.9012 15.05865048 20316","category":"Other"},{"name":"POLYTECH-UNIVERSE 3 (R*)","line1":"1 57191U 23091AB  26114.18538962  .00003923  00000+0  19254-3 0  9994","line2":"2 57191  97.5092 172.3310 0014393 321.7807  38.2405 15.18598151155751","category":"Other"},{"name":"NUSAT-9 (ALICE)","line1":"1 46828U 20079B   23275.86681023  .06099032  23258-5  94181-3 0  9999","line2":"2 46828  97.0919 350.4269 0010990 266.8171  93.1869 16.33943729163557","category":"Other"},{"name":"CONNECTA IOT-2","line1":"1 60522U 24149BG  26114.13331959  .00003613  00000+0  15430-3 0  9991","line2":"2 60522  97.3843 193.1162 0007579 144.4745 215.6998 15.23488857 93666","category":"Other"},{"name":"MIMAN","line1":"1 52900U 22065G   26113.35759046  .00000461  00000+0  10184-3 0  9990","line2":"2 52900  98.2178 256.1418 0007436 188.0659 172.0423 14.61777908202437","category":"Other"},{"name":"BUCCANEER MM","line1":"1 63245U 25052AM  26114.13601198  .00001552  00000+0  14942-3 0  9992","line2":"2 63245  97.6929   6.2452 0005276  49.0493 311.1183 14.94375420 60522","category":"Other"},{"name":"VENUS","line1":"1 42901U 17044B   23362.43065027  .00005534  00000+0  43837-3 0  9999","line2":"2 42901  97.4382  64.3702 0005790 195.0898 165.0155 15.00944742345128","category":"Other"},{"name":"NUSAT-4 (ADA)","line1":"1 43195U 18015D   24004.15388896  .07285419  26161-5  73412-3 0  9992","line2":"2 43195  97.5559 181.2615 0007046 278.8217  81.2283 16.38072031330742","category":"Other"},{"name":"GARAI-A","line1":"1 62635U 25009AC  26113.69551889  .00004990  00000+0  22910-3 0  9990","line2":"2 62635  97.3992 194.5684 0004026 146.9704 213.1784 15.20846514 70507","category":"Other"},{"name":"CHAMRAN-1","line1":"1 61072U 24165B   26113.13621068  .00002968  00000+0  18566-3 0  9997","line2":"2 61072  64.0763 223.1388 0049019 309.5014  50.1772 15.10649880 88343","category":"Other"},{"name":"ICEYE-X41","line1":"1 62700U 25009CV  26114.18029191  .00002943  00000+0  26487-3 0  9993","line2":"2 62700  97.7077 194.5062 0002045 146.2428 213.8923 14.96394329 69338","category":"Other"},{"name":"CUTE","line1":"1 49263U 21088D   26113.22249231  .00064321  00000+0  45151-3 0  9995","line2":"2 49263  97.4186 208.1483 0002383 172.3013 187.8288 15.73990622253860","category":"Other"}]}